STARLINK-6362           
1 57350U 23099Y   26080.94040365  .00001082  00000+0  95147-4 0  9990
2 57350  43.0030 169.8734 0001382 271.7745  88.2939 15.02543633148102
STARLINK-6331           
1 57351U 23099Z   26080.99468759  .00002912  00000+0  11815-3 0  9999
2 57351  42.9983 179.0406 0000612 313.7163  46.3638 15.26753857148000
STARLINK-6297           
1 57352U 23099AA  26080.93374511  .00001021  00000+0  90671-4 0  9994
2 57352  43.0049 169.8204 0001472 261.1478  98.9198 15.02537675148106
STARLINK-6324           
1 57353U 23099AB  26081.25002315  .00037249  00000+0  13916-2 0  9997
2 57353  43.0001 177.8156 0001662 258.9282 335.1742 15.26732221  5774
STARLINK-6293           
1 57354U 23099AC  26080.52597593  .00002613  00000+0  20839-3 0  9994
2 57354  43.0018 171.9201 0001546 254.2246 105.8426 15.02550462148047
STARLINK-6276           
1 57355U 23099AD  26080.60468928  .00000757  00000+0  71132-4 0  9993
2 57355  43.0033 171.6538 0001485 270.4733  89.5939 15.02541209148055
STARLINK-6355           
1 57356U 23099AE  26080.92375292  .00000435  00000+0  47243-4 0  9999
2 57356  43.0026 169.7465 0001356 274.0057  86.0630 15.02541229148109
STARLINK-5600           
1 57357U 23099AF  26080.93152910  .00002485  00000+0  19898-3 0  9992
2 57357  43.0022 169.8049 0001393 260.0186 100.0499 15.02536886148107
STARLINK-6299           
1 57358U 23099AG  26080.58581957  .00000510  00000+0  52805-4 0  9994
2 57358  43.0035 171.5081 0001269 263.6564  96.4134 15.02538731148799
STARLINK-6347           
1 57359U 23099AH  26080.93485289  .00001127  00000+0  98488-4 0  9997
2 57359  43.0033 169.8294 0001341 267.9846  92.0842 15.02541934148107
STARLINK-6348           
1 57360U 23099AJ  26080.64563875  .00001218  00000+0  10523-3 0  9999
2 57360  43.0033 171.0999 0001403 268.1411  91.9270 15.02537928148062
STARLINK-6340           
1 57361U 23099AK  26080.58803144  .00001014  00000+0  90095-4 0  9996
2 57361  43.0027 171.5274 0001447 279.2070  80.8608 15.02544241148056
STARLINK-6343           
1 57362U 23099AL  26080.64229904  .00000933  00000+0  84095-4 0  9992
2 57362  43.0019 171.0733 0001223 277.0753  82.9950 15.02545295148063
STARLINK-6356           
1 57363U 23099AM  26080.64896105  .00000888  00000+0  80769-4 0  9999
2 57363  43.0029 171.1226 0001371 260.0946  99.9742 15.02540330148065
STARLINK-6338           
1 57364U 23099AN  26080.57471312  .00000439  00000+0  47526-4 0  9997
2 57364  43.0023 171.4252 0001146 287.0769  72.9948 15.02545344148052
STARLINK-5007           
1 57365U 23099AP  26080.96359620  .00001784  00000+0  14709-3 0  9998
2 57365  43.0033 169.1792 0001169 262.6605  97.4104 15.02538216148113
