[{"OBJECT_NAME":"STARLINK-6362","OBJECT_ID":"2023-099Y","EPOCH":"2026-03-21T22:34:10.875360","MEAN_MOTION":15.02543633,"ECCENTRICITY":0.00013827,"INCLINATION":43.003,"RA_OF_ASC_NODE":169.8734,"ARG_OF_PERICENTER":271.7745,"MEAN_ANOMALY":88.2939,"EPHEMERIS_TYPE":0,"CLASSIFICATION_TYPE":"U","NORAD_CAT_ID":57350,"ELEMENT_SET_NO":999,"REV_AT_EPOCH":14810,"BSTAR":9.5147267e-5,"MEAN_MOTION_DOT":1.082e-5,"MEAN_MOTION_DDOT":0},{"OBJECT_NAME":"STARLINK-6331","OBJECT_ID":"2023-099Z","EPOCH":"2026-03-21T23:52:21.007776","MEAN_MOTION":15.26753857,"ECCENTRICITY":6.126e-5,"INCLINATION":42.9983,"RA_OF_ASC_NODE":179.0406,"ARG_OF_PERICENTER":313.7163,"MEAN_ANOMALY":46.3638,"EPHEMERIS_TYPE":0,"CLASSIFICATION_TYPE":"U","NORAD_CAT_ID":57351,"ELEMENT_SET_NO":999,"REV_AT_EPOCH":14800,"BSTAR":0.00011814706,"MEAN_MOTION_DOT":2.912e-5,"MEAN_MOTION_DDOT":0},{"OBJECT_NAME":"STARLINK-6297","OBJECT_ID":"2023-099AA","EPOCH":"2026-03-21T22:24:35.577504","MEAN_MOTION":15.02537675,"ECCENTRICITY":0.00014722,"INCLINATION":43.0049,"RA_OF_ASC_NODE":169.8204,"ARG_OF_PERICENTER":261.1478,"MEAN_ANOMALY":98.9198,"EPHEMERIS_TYPE":0,"CLASSIFICATION_TYPE":"U","NORAD_CAT_ID":57352,"ELEMENT_SET_NO":999,"REV_AT_EPOCH":14810,"BSTAR":9.0671477e-5,"MEAN_MOTION_DOT":1.021e-5,"MEAN_MOTION_DDOT":0},{"OBJECT_NAME":"STARLINK-6324","OBJECT_ID":"2023-099AB","EPOCH":"2026-03-22T06:00:02.000160","MEAN_MOTION":15.26732221,"ECCENTRICITY":0.0001662,"INCLINATION":43.0001,"RA_OF_ASC_NODE":177.8156,"ARG_OF_PERICENTER":258.9282,"MEAN_ANOMALY":335.1742,"EPHEMERIS_TYPE":0,"CLASSIFICATION_TYPE":"U","NORAD_CAT_ID":57353,"ELEMENT_SET_NO":999,"REV_AT_EPOCH":577,"BSTAR":0.0013916364,"MEAN_MOTION_DOT":0.00037249,"MEAN_MOTION_DDOT":0},{"OBJECT_NAME":"STARLINK-6293","OBJECT_ID":"2023-099AC","EPOCH":"2026-03-21T12:37:24.320352","MEAN_MOTION":15.02550462,"ECCENTRICITY":0.00015463,"INCLINATION":43.0018,"RA_OF_ASC_NODE":171.9201,"ARG_OF_PERICENTER":254.2246,"MEAN_ANOMALY":105.8426,"EPHEMERIS_TYPE":0,"CLASSIFICATION_TYPE":"U","NORAD_CAT_ID":57354,"ELEMENT_SET_NO":999,"REV_AT_EPOCH":14804,"BSTAR":0.00020838914,"MEAN_MOTION_DOT":2.613e-5,"MEAN_MOTION_DDOT":0},{"OBJECT_NAME":"STARLINK-6276","OBJECT_ID":"2023-099AD","EPOCH":"2026-03-21T14:30:45.153792","MEAN_MOTION":15.02541209,"ECCENTRICITY":0.00014852,"INCLINATION":43.0033,"RA_OF_ASC_NODE":171.6538,"ARG_OF_PERICENTER":270.4733,"MEAN_ANOMALY":89.5939,"EPHEMERIS_TYPE":0,"CLASSIFICATION_TYPE":"U","NORAD_CAT_ID":57355,"ELEMENT_SET_NO":999,"REV_AT_EPOCH":14805,"BSTAR":7.1132121e-5,"MEAN_MOTION_DOT":7.57e-6,"MEAN_MOTION_DDOT":0},{"OBJECT_NAME":"STARLINK-6355","OBJECT_ID":"2023-099AE","EPOCH":"2026-03-21T22:10:12.252288","MEAN_MOTION":15.02541229,"ECCENTRICITY":0.00013569,"INCLINATION":43.0026,"RA_OF_ASC_NODE":169.7465,"ARG_OF_PERICENTER":274.0057,"MEAN_ANOMALY":86.063,"EPHEMERIS_TYPE":0,"CLASSIFICATION_TYPE":"U","NORAD_CAT_ID":57356,"ELEMENT_SET_NO":999,"REV_AT_EPOCH":14810,"BSTAR":4.7242802e-5,"MEAN_MOTION_DOT":4.35e-6,"MEAN_MOTION_DDOT":0},{"OBJECT_NAME":"STARLINK-5600","OBJECT_ID":"2023-099AF","EPOCH":"2026-03-21T22:21:24.114240","MEAN_MOTION":15.02536886,"ECCENTRICITY":0.00013934,"INCLINATION":43.0022,"RA_OF_ASC_NODE":169.8049,"ARG_OF_PERICENTER":260.0186,"MEAN_ANOMALY":100.0499,"EPHEMERIS_TYPE":0,"CLASSIFICATION_TYPE":"U","NORAD_CAT_ID":57357,"ELEMENT_SET_NO":999,"REV_AT_EPOCH":14810,"BSTAR":0.00019898339,"MEAN_MOTION_DOT":2.485e-5,"MEAN_MOTION_DDOT":0},{"OBJECT_NAME":"STARLINK-6299","OBJECT_ID":"2023-099AG","EPOCH":"2026-03-21T14:03:34.810848","MEAN_MOTION":15.02538731,"ECCENTRICITY":0.00012696,"INCLINATION":43.0035,"RA_OF_ASC_NODE":171.5081,"ARG_OF_PERICENTER":263.6564,"MEAN_ANOMALY":96.4134,"EPHEMERIS_TYPE":0,"CLASSIFICATION_TYPE":"U","NORAD_CAT_ID":57358,"ELEMENT_SET_NO":999,"REV_AT_EPOCH":14879,"BSTAR":5.2804886e-5,"MEAN_MOTION_DOT":5.1e-6,"MEAN_MOTION_DDOT":0},{"OBJECT_NAME":"STARLINK-6347","OBJECT_ID":"2023-099AH","EPOCH":"2026-03-21T22:26:11.289696","MEAN_MOTION":15.02541934,"ECCENTRICITY":0.0001341,"INCLINATION":43.0033,"RA_OF_ASC_NODE":169.8294,"ARG_OF_PERICENTER":267.9846,"MEAN_ANOMALY":92.0842,"EPHEMERIS_TYPE":0,"CLASSIFICATION_TYPE":"U","NORAD_CAT_ID":57359,"ELEMENT_SET_NO":999,"REV_AT_EPOCH":14810,"BSTAR":9.8488098e-5,"MEAN_MOTION_DOT":1.127e-5,"MEAN_MOTION_DDOT":0},{"OBJECT_NAME":"STARLINK-6348","OBJECT_ID":"2023-099AJ","EPOCH":"2026-03-21T15:29:43.188000","MEAN_MOTION":15.02537928,"ECCENTRICITY":0.00014039,"INCLINATION":43.0033,"RA_OF_ASC_NODE":171.0999,"ARG_OF_PERICENTER":268.1411,"MEAN_ANOMALY":91.927,"EPHEMERIS_TYPE":0,"CLASSIFICATION_TYPE":"U","NORAD_CAT_ID":57360,"ELEMENT_SET_NO":999,"REV_AT_EPOCH":14806,"BSTAR":0.00010522599,"MEAN_MOTION_DOT":1.218e-5,"MEAN_MOTION_DDOT":0},{"OBJECT_NAME":"STARLINK-6340","OBJECT_ID":"2023-099AK","EPOCH":"2026-03-21T14:06:45.916416","MEAN_MOTION":15.02544241,"ECCENTRICITY":0.00014472,"INCLINATION":43.0027,"RA_OF_ASC_NODE":171.5274,"ARG_OF_PERICENTER":279.207,"MEAN_ANOMALY":80.8608,"EPHEMERIS_TYPE":0,"CLASSIFICATION_TYPE":"U","NORAD_CAT_ID":57361,"ELEMENT_SET_NO":999,"REV_AT_EPOCH":14805,"BSTAR":9.0095187e-5,"MEAN_MOTION_DOT":1.014e-5,"MEAN_MOTION_DDOT":0},{"OBJECT_NAME":"STARLINK-6343","OBJECT_ID":"2023-099AL","EPOCH":"2026-03-21T15:24:54.637056","MEAN_MOTION":15.02545295,"ECCENTRICITY":0.00012231,"INCLINATION":43.0019,"RA_OF_ASC_NODE":171.0733,"ARG_OF_PERICENTER":277.0753,"MEAN_ANOMALY":82.995,"EPHEMERIS_TYPE":0,"CLASSIFICATION_TYPE":"U","NORAD_CAT_ID":57362,"ELEMENT_SET_NO":999,"REV_AT_EPOCH":14806,"BSTAR":8.4095379e-5,"MEAN_MOTION_DOT":9.33e-6,"MEAN_MOTION_DDOT":0},{"OBJECT_NAME":"STARLINK-6356","OBJECT_ID":"2023-099AM","EPOCH":"2026-03-21T15:34:30.234720","MEAN_MOTION":15.0254033,"ECCENTRICITY":0.00013714,"INCLINATION":43.0029,"RA_OF_ASC_NODE":171.1226,"ARG_OF_PERICENTER":260.0946,"MEAN_ANOMALY":99.9742,"EPHEMERIS_TYPE":0,"CLASSIFICATION_TYPE":"U","NORAD_CAT_ID":57363,"ELEMENT_SET_NO":999,"REV_AT_EPOCH":14806,"BSTAR":8.0768662e-5,"MEAN_MOTION_DOT":8.88e-6,"MEAN_MOTION_DDOT":0},{"OBJECT_NAME":"STARLINK-6338","OBJECT_ID":"2023-099AN","EPOCH":"2026-03-21T13:47:35.213568","MEAN_MOTION":15.02545344,"ECCENTRICITY":0.00011469,"INCLINATION":43.0023,"RA_OF_ASC_NODE":171.4252,"ARG_OF_PERICENTER":287.0769,"MEAN_ANOMALY":72.9948,"EPHEMERIS_TYPE":0,"CLASSIFICATION_TYPE":"U","NORAD_CAT_ID":57364,"ELEMENT_SET_NO":999,"REV_AT_EPOCH":14805,"BSTAR":4.7525522e-5,"MEAN_MOTION_DOT":4.39e-6,"MEAN_MOTION_DDOT":0},{"OBJECT_NAME":"STARLINK-5007","OBJECT_ID":"2023-099AP","EPOCH":"2026-03-21T23:07:34.711680","MEAN_MOTION":15.02538216,"ECCENTRICITY":0.0001169,"INCLINATION":43.0033,"RA_OF_ASC_NODE":169.1792,"ARG_OF_PERICENTER":262.6605,"MEAN_ANOMALY":97.4104,"EPHEMERIS_TYPE":0,"CLASSIFICATION_TYPE":"U","NORAD_CAT_ID":57365,"ELEMENT_SET_NO":999,"REV_AT_EPOCH":14811,"BSTAR":0.00014708505,"MEAN_MOTION_DOT":1.784e-5,"MEAN_MOTION_DDOT":0}]
